LEMUR-2-TARTIFLETTE     
1 66784U 25276DZ  26087.70676883  .00006238  00000+0  53139-3 0  9993
2 66784  97.5317 161.1405 0014694  54.0061 306.2521 14.98031160 18149
LEMUR-2-VUKASIN         
1 66785U 25276EA  26087.63733696  .00007388  00000+0  60847-3 0  9993
2 66785  97.5318 161.2139 0009950  53.4613 306.7525 14.99318383 18078
LEMUR-2-HOTSPUR-TOM     
1 66786U 25276EB  26087.76324129  .00007392  00000+0  62851-3 0  9997
2 66786  97.5312 161.1971 0015575  50.6490 309.6110 14.98028652 18087
LEMUR-2 FIKRETDENGIZ    
1 67363U 26004A   26087.70909372  .00006107  00000+0  67645-3 0  9991
2 67363  97.8023  87.5454 0010263  52.5160 307.6988 14.87636322 11319
LEMUR-2-CALLUM-K-J      
1 67364U 26004B   26087.70916973  .00004181  00000+0  46781-3 0  9995
2 67364  97.8065  87.5746 0009718  42.3026 317.8938 14.87403000 11325
LEMUR-2-MARIO-SOUSA     
1 67365U 26004C   26087.90344354  .00006305  00000+0  69542-3 0  9996
2 67365  97.8001  87.7357 0009821  53.2091 307.0025 14.87799043 11350
LEMUR-2-SONNENBLUME     
1 67367U 26004E   26087.96506429  .00005177  00000+0  57122-3 0  9994
2 67367  97.7990  87.7984 0009483  54.7725 305.4377 14.87867142 11367
LEMUR-2-WOBLER          
1 67368U 26004F   26087.56101159  .00005964  00000+0  65714-3 0  9992
2 67368  97.8051  87.4521 0009474  46.4989 313.7013 14.87868767 11308
LEMUR-2-GRAM-E-SUE      
1 67370U 26004H   26087.89084031  .00006537  00000+0  71697-3 0  9994
2 67370  97.7981  87.7333 0008669  57.8660 302.3396 14.88020651 11359
LEMUR-2-KATIE           
1 67387U 26004AA  26087.95865792  .00007196  00000+0  76276-3 0  9990
2 67387  97.8048  88.0082 0003623  30.3217 329.8209 14.89395566 11365
LEMUR-2-HCS-BAZUS       
1 67388U 26004AB  26087.75313459  .00005915  00000+0  62797-3 0  9997
2 67388  97.8035  87.8051 0002908  31.1883 328.9507 14.89408510 11330
