[{"OBJECT_NAME":"LEMUR-2-TARTIFLETTE","OBJECT_ID":"2025-276DZ","EPOCH":"2026-03-28T16:57:44.826912","MEAN_MOTION":14.9803116,"ECCENTRICITY":0.00146945,"INCLINATION":97.5317,"RA_OF_ASC_NODE":161.1405,"ARG_OF_PERICENTER":54.0061,"MEAN_ANOMALY":306.2521,"EPHEMERIS_TYPE":0,"CLASSIFICATION_TYPE":"U","NORAD_CAT_ID":66784,"ELEMENT_SET_NO":999,"REV_AT_EPOCH":1814,"BSTAR":0.00053138643,"MEAN_MOTION_DOT":6.238e-5,"MEAN_MOTION_DDOT":0},{"OBJECT_NAME":"LEMUR-2-VUKASIN","OBJECT_ID":"2025-276EA","EPOCH":"2026-03-28T15:17:45.913344","MEAN_MOTION":14.99318383,"ECCENTRICITY":0.00099503,"INCLINATION":97.5318,"RA_OF_ASC_NODE":161.2139,"ARG_OF_PERICENTER":53.4613,"MEAN_ANOMALY":306.7525,"EPHEMERIS_TYPE":0,"CLASSIFICATION_TYPE":"U","NORAD_CAT_ID":66785,"ELEMENT_SET_NO":999,"REV_AT_EPOCH":1807,"BSTAR":0.00060846861,"MEAN_MOTION_DOT":7.388e-5,"MEAN_MOTION_DDOT":0},{"OBJECT_NAME":"LEMUR-2-HOTSPUR-TOM","OBJECT_ID":"2025-276EB","EPOCH":"2026-03-28T18:19:04.047456","MEAN_MOTION":14.98028652,"ECCENTRICITY":0.00155753,"INCLINATION":97.5312,"RA_OF_ASC_NODE":161.1971,"ARG_OF_PERICENTER":50.649,"MEAN_ANOMALY":309.611,"EPHEMERIS_TYPE":0,"CLASSIFICATION_TYPE":"U","NORAD_CAT_ID":66786,"ELEMENT_SET_NO":999,"REV_AT_EPOCH":1808,"BSTAR":0.00062851257,"MEAN_MOTION_DOT":7.392e-5,"MEAN_MOTION_DDOT":0},{"OBJECT_NAME":"LEMUR-2 FIKRETDENGIZ","OBJECT_ID":"2026-004A","EPOCH":"2026-03-28T17:01:05.697408","MEAN_MOTION":14.87636322,"ECCENTRICITY":0.00102636,"INCLINATION":97.8023,"RA_OF_ASC_NODE":87.5454,"ARG_OF_PERICENTER":52.516,"MEAN_ANOMALY":307.6988,"EPHEMERIS_TYPE":0,"CLASSIFICATION_TYPE":"U","NORAD_CAT_ID":67363,"ELEMENT_SET_NO":999,"REV_AT_EPOCH":1131,"BSTAR":0.00067644839,"MEAN_MOTION_DOT":6.107e-5,"MEAN_MOTION_DDOT":0},{"OBJECT_NAME":"LEMUR-2-CALLUM-K-J","OBJECT_ID":"2026-004B","EPOCH":"2026-03-28T17:01:12.264672","MEAN_MOTION":14.87403,"ECCENTRICITY":0.00097185,"INCLINATION":97.8065,"RA_OF_ASC_NODE":87.5746,"ARG_OF_PERICENTER":42.3026,"MEAN_ANOMALY":317.8938,"EPHEMERIS_TYPE":0,"CLASSIFICATION_TYPE":"U","NORAD_CAT_ID":67364,"ELEMENT_SET_NO":999,"REV_AT_EPOCH":1132,"BSTAR":0.00046781403,"MEAN_MOTION_DOT":4.181e-5,"MEAN_MOTION_DDOT":0},{"OBJECT_NAME":"LEMUR-2-MARIO-SOUSA","OBJECT_ID":"2026-004C","EPOCH":"2026-03-28T21:40:57.521856","MEAN_MOTION":14.87799043,"ECCENTRICITY":0.00098214,"INCLINATION":97.8001,"RA_OF_ASC_NODE":87.7357,"ARG_OF_PERICENTER":53.2091,"MEAN_ANOMALY":307.0025,"EPHEMERIS_TYPE":0,"CLASSIFICATION_TYPE":"U","NORAD_CAT_ID":67365,"ELEMENT_SET_NO":999,"REV_AT_EPOCH":1135,"BSTAR":0.00069542086,"MEAN_MOTION_DOT":6.305e-5,"MEAN_MOTION_DDOT":0},{"OBJECT_NAME":"LEMUR-2-SONNENBLUME","OBJECT_ID":"2026-004E","EPOCH":"2026-03-28T23:09:41.554656","MEAN_MOTION":14.87867142,"ECCENTRICITY":0.00094832,"INCLINATION":97.799,"RA_OF_ASC_NODE":87.7984,"ARG_OF_PERICENTER":54.7725,"MEAN_ANOMALY":305.4377,"EPHEMERIS_TYPE":0,"CLASSIFICATION_TYPE":"U","NORAD_CAT_ID":67367,"ELEMENT_SET_NO":999,"REV_AT_EPOCH":1136,"BSTAR":0.00057122369,"MEAN_MOTION_DOT":5.177e-5,"MEAN_MOTION_DDOT":0},{"OBJECT_NAME":"LEMUR-2-WOBLER","OBJECT_ID":"2026-004F","EPOCH":"2026-03-28T13:27:51.401376","MEAN_MOTION":14.87868767,"ECCENTRICITY":0.0009474,"INCLINATION":97.8051,"RA_OF_ASC_NODE":87.4521,"ARG_OF_PERICENTER":46.4989,"MEAN_ANOMALY":313.7013,"EPHEMERIS_TYPE":0,"CLASSIFICATION_TYPE":"U","NORAD_CAT_ID":67368,"ELEMENT_SET_NO":999,"REV_AT_EPOCH":1130,"BSTAR":0.00065714,"MEAN_MOTION_DOT":5.964e-5,"MEAN_MOTION_DDOT":0},{"OBJECT_NAME":"LEMUR-2-GRAM-E-SUE","OBJECT_ID":"2026-004H","EPOCH":"2026-03-28T21:22:48.602784","MEAN_MOTION":14.88020651,"ECCENTRICITY":0.00086698,"INCLINATION":97.7981,"RA_OF_ASC_NODE":87.7333,"ARG_OF_PERICENTER":57.866,"MEAN_ANOMALY":302.3396,"EPHEMERIS_TYPE":0,"CLASSIFICATION_TYPE":"U","NORAD_CAT_ID":67370,"ELEMENT_SET_NO":999,"REV_AT_EPOCH":1135,"BSTAR":0.0007169744,"MEAN_MOTION_DOT":6.537e-5,"MEAN_MOTION_DDOT":0},{"OBJECT_NAME":"LEMUR-2-KATIE","OBJECT_ID":"2026-004AA","EPOCH":"2026-03-28T23:00:28.044288","MEAN_MOTION":14.89395566,"ECCENTRICITY":0.00036233,"INCLINATION":97.8048,"RA_OF_ASC_NODE":88.0082,"ARG_OF_PERICENTER":30.3217,"MEAN_ANOMALY":329.8209,"EPHEMERIS_TYPE":0,"CLASSIFICATION_TYPE":"U","NORAD_CAT_ID":67387,"ELEMENT_SET_NO":999,"REV_AT_EPOCH":1136,"BSTAR":0.00076276458,"MEAN_MOTION_DOT":7.196e-5,"MEAN_MOTION_DDOT":0},{"OBJECT_NAME":"LEMUR-2-HCS-BAZUS","OBJECT_ID":"2026-004AB","EPOCH":"2026-03-28T18:04:30.828576","MEAN_MOTION":14.8940851,"ECCENTRICITY":0.00029083,"INCLINATION":97.8035,"RA_OF_ASC_NODE":87.8051,"ARG_OF_PERICENTER":31.1883,"MEAN_ANOMALY":328.9507,"EPHEMERIS_TYPE":0,"CLASSIFICATION_TYPE":"U","NORAD_CAT_ID":67388,"ELEMENT_SET_NO":999,"REV_AT_EPOCH":1133,"BSTAR":0.00062797368,"MEAN_MOTION_DOT":5.915e-5,"MEAN_MOTION_DDOT":0}]
